NORAD_CAT_ID,OBJECT_NAME,OBJECT_TYPE,EPOCH,MEAN_MOTION,ECCENTRICITY,INCLINATION,RA_OF_ASC_NODE,ARG_OF_PERICENTER,MEAN_ANOMALY,BSTAR,MEAN_MOTION_DOT,MEAN_MOTION_DDOT,TLE_LINE0,TLE_LINE1,TLE_LINE2,SEMIMAJOR_AXIS,PERIOD,APOGEE,PERIGEE,DECAYED
55293.0,STARLINK-5287,PAYLOAD,2024-05-29 14:38:15,14.98329817,0.0003026,70.0,221.0022,269.2311,90.8501,-5.1979e-05,-7.13e-06,0.0,0 STARLINK-5287,1 55293U 23010AA  24150.60990004 -.00000713  00000-0 -51979-4 0  9998,2 55293  70.0000 221.0022 0003026 269.2311  90.8501 14.98329817 76049,6950.193,96.107,574.162,569.955,0.0
55293.0,STARLINK-5287,PAYLOAD,2024-05-30 05:03:27,14.98329582,0.0002952,70.0001,219.4884,264.4614,95.6208,-6.4144e-05,-8.58e-06,0.0,0 STARLINK-5287,1 55293U 23010AA  24151.21074033 -.00000858  00000-0 -64144-4 0  9999,2 55293  70.0001 219.4884 0002952 264.4614  95.6208 14.98329582 75839,6950.194,96.107,574.111,570.007,0.0
55293.0,STARLINK-5287,PAYLOAD,2024-05-30 14:40:16,14.98326813,0.0003021,69.9999,218.4785,265.0263,95.0551,-9.0272e-05,-1.17e-05,0.0,0 STARLINK-5287,1 55293U 23010AA  24151.61130324 -.00001170  00000-0 -90272-4 0  9998,2 55293  69.9999 218.4785 0003021 265.0263  95.0551 14.98326813 76195,6950.203,96.107,574.167,569.968,0.0
55293.0,STARLINK-5287,PAYLOAD,2024-05-31 05:05:28,14.98330049,0.0003251,69.9992,216.962,271.3529,88.7258,4.2269e-05,4.11e-06,0.0,0 STARLINK-5287,1 55293U 23010AA  24152.21213774  .00000411  00000-0  42269-4 0  9994,2 55293  69.9992 216.9620 0003251 271.3529  88.7258 14.98330049 75984,6950.193,96.107,574.317,569.798,0.0
55293.0,STARLINK-5287,PAYLOAD,2024-05-31 14:42:16,14.98334586,0.0003143,69.9994,215.9521,271.3538,88.7261,9.6049e-05,1.053e-05,0.0,0 STARLINK-5287,1 55293U 23010AA  24152.61269296  .00001053  00000-0  96049-4 0  9996,2 55293  69.9994 215.9521 0003143 271.3538  88.7261 14.98334586 76340,6950.179,96.107,574.228,569.859,0.0
55293.0,STARLINK-5287,PAYLOAD,2024-06-01 05:07:29,14.9832496,0.0003101,69.9994,214.4367,272.9156,87.1648,2.9452e-05,2.58e-06,0.0,0 STARLINK-5287,1 55293U 23010AA  24153.21354070  .00000258  00000-0  29452-4 0  9998,2 55293  69.9994 214.4367 0003101 272.9156  87.1648 14.98324960 76133,6950.208,96.107,574.229,569.918,0.0
55293.0,STARLINK-5287,PAYLOAD,2024-06-01 13:08:10,14.98324615,0.0003066,69.9994,213.5961,268.5518,91.529,2.0799e-05,1.55e-06,0.0,0 STARLINK-5287,1 55293U 23010AA  24153.54734178  .00000155  00000-0  20799-4 0  9996,2 55293  69.9994 213.5961 0003066 268.5518  91.5290 14.98324615 76483,6950.21,96.107,574.205,569.944,0.0
55293.0,STARLINK-5287,PAYLOAD,2024-06-02 05:09:30,14.98334184,0.0003132,69.9992,211.9125,268.6328,91.4472,-3.9111e-05,-5.6e-06,0.0,0 STARLINK-5287,1 55293U 23010AA  24154.21493774 -.00000560  00000-0 -39111-4 0  9995,2 55293  69.9992 211.9125 0003132 268.6328  91.4472 14.98334184 76280,6950.18,96.107,574.222,569.868,0.0
55293.0,STARLINK-5287,PAYLOAD,2024-06-02 11:34:02,14.98332827,0.0003182,69.9992,211.239,268.8789,91.2005,-5.2427e-05,-7.19e-06,0.0,0 STARLINK-5287,1 55293U 23010AA  24154.48197835 -.00000719  00000-0 -52427-4 0  9994,2 55293  69.9992 211.2390 0003182 268.8789  91.2005 14.98332827 76625,6950.184,96.107,574.261,569.838,0.0
55293.0,STARLINK-5287,PAYLOAD,2024-06-02 21:10:50,14.98350886,0.0003244,69.999,210.2289,265.1288,94.9501,-0.0003304,-4.035e-05,0.0,0 STARLINK-5287,1 55293U 23010AA  24154.88253111 -.00004035  00000-0 -33040-3 0  9992,2 55293  69.9990 210.2289 0003244 265.1288  94.9501 14.98350886 76381,6950.128,96.106,574.248,569.739,0.0
55293.0,STARLINK-5287,PAYLOAD,2024-06-03 05:11:31,14.9832754,0.0003336,69.9988,209.3871,270.3259,89.7517,6.0151e-07,-8.6e-07,0.0,0 STARLINK-5287,1 55293U 23010AA  24155.21633934 -.00000086  00000-0  60151-6 0  9992,2 55293  69.9988 209.3871 0003336 270.3259  89.7517 14.98327540 76438,6950.2,96.107,574.384,569.747,0.0
55293.0,STARLINK-5287,PAYLOAD,2024-06-03 11:36:03,14.98329889,0.0003333,69.9988,208.7138,270.21,89.8677,2.5804e-05,2.15e-06,0.0,0 STARLINK-5287,1 55293U 23010AA  24155.48337732  .00000215  00000-0  25804-4 0  9995,2 55293  69.9988 208.7138 0003333 270.2100  89.8677 14.98329889 76771,6950.193,96.107,574.375,569.742,0.0
55293.0,STARLINK-5287,PAYLOAD,2024-06-03 21:12:52,14.9833152,0.0003326,69.9989,207.703,269.9778,90.1,2.6951e-05,2.29e-06,0.0,0 STARLINK-5287,1 55293U 23010AA  24155.88393587  .00000229  00000-0  26951-4 0  9998,2 55293  69.9989 207.7030 0003326 269.9778  90.1000 14.98331520 76837,6950.188,96.107,574.365,569.742,0.0
55293.0,STARLINK-5287,PAYLOAD,2024-06-04 03:37:24,14.98332747,0.0003353,69.9988,207.0297,269.9022,90.1753,5.3305e-05,5.43e-06,0.0,0 STARLINK-5287,1 55293U 23010AA  24156.15097384  .00000543  00000-0  53305-4 0  9997,2 55293  69.9988 207.0297 0003353 269.9022  90.1753 14.98332747 76574,6950.184,96.107,574.38,569.719,0.0
55293.0,STARLINK-5287,PAYLOAD,2024-06-04 11:38:04,14.98336934,0.0003359,69.9988,206.1885,270.5653,89.5121,5.872e-05,6.08e-06,0.0,0 STARLINK-5287,1 55293U 23010AA  24156.48477022  .00000608  00000-0  58720-4 0  9992,2 55293  69.9988 206.1885 0003359 270.5653  89.5121 14.98336934 76923,6950.171,96.107,574.371,569.702,0.0
55293.0,STARLINK-5287,PAYLOAD,2024-06-04 21:14:52,14.98333894,0.000331,69.9989,205.1783,270.918,89.16,1.8548e-05,1.28e-06,0.0,0 STARLINK-5287,1 55293U 23010AA  24156.88533194  .00000128  00000-0  18548-4 0  9990,2 55293  69.9989 205.1783 0003310 270.9180  89.1600 14.98333894 76982,6950.181,96.107,574.346,569.745,0.0
55293.0,STARLINK-5287,PAYLOAD,2024-06-05 05:15:33,14.98329105,0.0003303,69.9988,204.337,270.3909,89.6872,-8.3954e-07,-1.03e-06,0.0,0 STARLINK-5287,1 55293U 23010AA  24157.21913508 -.00000103  00000-0 -83954-6 0  9999,2 55293  69.9988 204.3370 0003303 270.3909  89.6872 14.98329105 76738,6950.196,96.107,574.356,569.765,0.0
55293.0,STARLINK-5287,PAYLOAD,2024-06-05 11:40:05,14.98330556,0.0003322,69.9988,203.6636,270.333,89.7448,-2.146e-05,-3.49e-06,0.0,0 STARLINK-5287,1 55293U 23010AA  24157.48617465 -.00000349  00000-0 -21460-4 0  9995,2 55293  69.9988 203.6636 0003322 270.3330  89.7448 14.98330556 77074,6950.191,96.107,574.365,569.747,0.0
55293.0,STARLINK-5287,PAYLOAD,2024-06-06 05:17:34,14.98331284,0.000324,69.999,201.8121,270.804,89.2748,-4.8636e-05,-6.73e-06,0.0,0 STARLINK-5287,1 55293U 23010AA  24158.22053442 -.00000673  00000-0 -48636-4 0  9991,2 55293  69.9990 201.8121 0003240 270.8040  89.2748 14.98331284 76883,6950.189,96.107,574.306,569.802,0.0
55293.0,STARLINK-5287,PAYLOAD,2024-06-06 11:42:06,14.98332408,0.0003245,69.9989,201.1389,270.5112,89.5676,-3.8009e-05,-5.47e-06,0.0,0 STARLINK-5287,1 55293U 23010AA  24158.48757309 -.00000547  00000-0 -38009-4 0  9995,2 55293  69.9989 201.1389 0003245 270.5112  89.5676 14.98332408 77223,6950.185,96.107,574.306,569.795,0.0
55293.0,STARLINK-5287,PAYLOAD,2024-06-07 08:31:51,14.98329169,0.0003297,69.9987,198.9507,268.9914,91.0867,1.2016e-05,5e-07,0.0,0 STARLINK-5287,1 55293U 23010AA  24159.35545305  .00000050  00000-0  12016-4 0  9990,2 55293  69.9987 198.9507 0003297 268.9914  91.0867 14.98329169 77055,6950.195,96.107,574.352,569.769,0.0
55293.0,STARLINK-5287,PAYLOAD,2024-06-07 19:44:47,14.98330615,0.0003255,69.9989,197.7726,268.9221,91.1565,3.8928e-05,3.71e-06,0.0,0 STARLINK-5287,1 55293U 23010AA  24159.82277135  .00000371  00000-0  38928-4 0  9991,2 55293  69.9989 197.7726 0003255 268.9221  91.1565 14.98330615 77427,6950.191,96.107,574.318,569.794,0.0
55293.0,STARLINK-5287,PAYLOAD,2024-06-08 11:46:07,14.9833326,0.0003281,69.9988,196.0893,268.2973,91.781,4.2333e-05,4.12e-06,0.0,0 STARLINK-5287,1 55293U 23010AA  24160.49036829  .00000412  00000-0  42333-4 0  9990,2 55293  69.9988 196.0893 0003281 268.2973  91.7810 14.98333260 77528,6950.183,96.107,574.328,569.767,0.0
55293.0,STARLINK-5287,PAYLOAD,2024-06-09 05:23:37,14.98325462,0.0003249,69.9988,194.2378,267.9922,92.0864,-4.43e-05,-6.22e-06,0.0,0 STARLINK-5287,1 55293U 23010AA  24161.22473564 -.00000622  00000-0 -44300-4 0  9994,2 55293  69.9988 194.2378 0003249 267.9922  92.0864 14.98325462 77337,6950.207,96.107,574.33,569.814,0.0
55293.0,STARLINK-5287,PAYLOAD,2024-06-09 11:48:09,14.98323935,0.000327,69.9988,193.5645,268.1028,91.9756,-5.9089e-05,-7.98e-06,0.0,0 STARLINK-5287,1 55293U 23010AA  24161.49177772 -.00000798  00000-0 -59089-4 0  9999,2 55293  69.9988 193.5645 0003270 268.1028  91.9756 14.98323935 77678,6950.212,96.107,574.349,569.804,0.0
55293.0,STARLINK-5287,PAYLOAD,2024-06-09 19:48:49,14.98327567,0.0003312,69.9987,192.7226,268.5078,91.5701,-3.7956e-05,-5.46e-06,0.0,0 STARLINK-5287,1 55293U 23010AA  24161.82557541 -.00000546  00000-0 -37956-4 0  9992,2 55293  69.9987 192.7226 0003312 268.5078  91.5701 14.98327567 77726,6950.2,96.107,574.367,569.764,0.0
55293.0,STARLINK-5287,PAYLOAD,2024-06-10 05:25:37,14.98331589,0.0003358,69.9985,191.7127,269.0247,91.0527,-5.9839e-06,-1.64e-06,0.0,0 STARLINK-5287,1 55293U 23010AA  24162.22613173 -.00000164  00000-0 -59839-5 0  9992,2 55293  69.9985 191.7127 0003358 269.0247  91.0527 14.98331589 77480,6950.188,96.107,574.387,569.719,0.0
55293.0,STARLINK-5287,PAYLOAD,2024-06-10 11:50:09,14.98333075,0.0003365,69.9985,191.0393,268.7781,91.2992,-6.5757e-06,-1.72e-06,0.0,0 STARLINK-5287,1 55293U 23010AA  24162.49317048 -.00000172  00000-0 -65757-5 0  9998,2 55293  69.9985 191.0393 0003365 268.7781  91.2992 14.98333075 77823,6950.183,96.107,574.387,569.71,0.0
55293.0,STARLINK-5287,PAYLOAD,2024-06-10 19:50:50,14.98329917,0.0003368,69.9986,190.1976,268.9615,91.1158,2.0008e-05,1.46e-06,0.0,0 STARLINK-5287,1 55293U 23010AA  24162.82697143  .00000146  00000-0  20008-4 0  9990,2 55293  69.9986 190.1976 0003368 268.9615  91.1158 14.98329917 77870,6950.193,96.107,574.399,569.717,0.0
55293.0,STARLINK-5287,PAYLOAD,2024-06-11 05:27:38,14.98327657,0.000338,69.9985,189.1877,268.8456,91.2316,7.042e-05,7.47e-06,0.0,0 STARLINK-5287,1 55293U 23010AA  24163.22753157  .00000747  00000-0  70420-4 0  9993,2 55293  69.9985 189.1877 0003380 268.8456  91.2316 14.98327657 77633,6950.2,96.107,574.414,569.716,0.0
